{
    "links": {
        "self": "http://www.neowsapp.com/rest/v1/neo/3709401?api_key=iIulBulltgU6a56xZRHN4H3l9WmuAYTsLGpBGhQ2"
    },
    "id": "3709401",
    "neo_reference_id": "3709401",
    "name": "(2015 BM514)",
    "designation": "2015 BM514",
    "nasa_jpl_url": "http://ssd.jpl.nasa.gov/sbdb.cgi?sstr=3709401",
    "absolute_magnitude_h": 23.1,
    "estimated_diameter": {
        "kilometers": {
            "estimated_diameter_min": 0.063760979,
            "estimated_diameter_max": 0.1425738833
        },
        "meters": {
            "estimated_diameter_min": 63.7609789875,
            "estimated_diameter_max": 142.5738833281
        },
        "miles": {
            "estimated_diameter_min": 0.0396192233,
            "estimated_diameter_max": 0.0885912765
        },
        "feet": {
            "estimated_diameter_min": 209.1895703015,
            "estimated_diameter_max": 467.7620993781
        }
    },
    "is_potentially_hazardous_asteroid": false,
    "close_approach_data": [
        {
            "close_approach_date": "2015-02-08",
            "close_approach_date_full": "2015-Feb-08 07:24",
            "epoch_date_close_approach": 1423380240000,
            "relative_velocity": {
                "kilometers_per_second": "4.8600776027",
                "kilometers_per_hour": "17496.2793696975",
                "miles_per_hour": "10871.5075894656"
            },
            "miss_distance": {
                "astronomical": "0.1644016071",
                "lunar": "63.9522251619",
                "kilometers": "24594130.246736877",
                "miles": "15282083.8956758226"
            },
            "orbiting_body": "Earth"
        },
        {
            "close_approach_date": "2034-01-02",
            "close_approach_date_full": "2034-Jan-02 22:22",
            "epoch_date_close_approach": 2019853320000,
            "relative_velocity": {
                "kilometers_per_second": "17.2365666147",
                "kilometers_per_hour": "62051.6398127882",
                "miles_per_hour": "38556.4758603406"
            },
            "miss_distance": {
                "astronomical": "0.4804351074",
                "lunar": "186.8892567786",
                "kilometers": "71872068.740261238",
                "miles": "44659232.6390635644"
            },
            "orbiting_body": "Earth"
        }
    ],
    "orbital_data": {
        "orbit_id": "8",
        "orbit_determination_date": "2017-04-06 08:35:56",
        "first_observation_date": "2015-01-30",
        "last_observation_date": "2015-03-15",
        "data_arc_in_days": 44,
        "observations_used": 17,
        "orbit_uncertainty": "7",
        "minimum_orbit_intersection": ".158624",
        "jupiter_tisserand_invariant": "3.283",
        "epoch_osculation": "2459000.5",
        "eccentricity": ".5410076498957561",
        "semi_major_axis": "2.435217570282662",
        "inclination": "4.994310389040935",
        "ascending_node_longitude": "37.80978747791613",
        "orbital_period": "1388.049901796241",
        "perihelion_distance": "1.117746235599186",
        "perihelion_argument": "100.7042089760001",
        "aphelion_distance": "3.752688904966138",
        "perihelion_time": "2458448.014272485929",
        "mean_anomaly": "143.2908583817344",
        "mean_motion": ".259356669766795",
        "equinox": "J2000",
        "orbit_class": {
            "orbit_class_type": "AMO",
            "orbit_class_description": "Near-Earth asteroid orbits similar to that of 1221 Amor",
            "orbit_class_range": "1.017 AU < q (perihelion) < 1.3 AU"
        }
    },
    "is_sentry_object": false
}